{
  "norad_id": 68951,
  "name": "STARLINK-37258",
  "history": [
    {
      "epoch": "2026-05-12T20:00:01.999008Z",
      "apogee_km": 328.54305464051595,
      "perigee_km": 327.32254993649985,
      "latitude_deg": -26.216006931905525,
      "longitude_deg": 139.62070778069372,
      "height_km": 335.95750033944665,
      "semi_major_axis_km": 6706.069802288507,
      "eccentricity": 9.1e-05,
      "inclination_deg": 53.1597,
      "raan_deg": 331.7516,
      "arg_perigee_deg": 86.75,
      "mean_anomaly_deg": 240.0299,
      "mean_motion_rev_day": 15.80886379
    }
  ]
}