STARLINK-37258          
1 68951U 26099A   26132.83335648 -.00001992  00000+0 -65503-5 0  9995
2 68951  53.1597 331.7516 0000910  86.7500 240.0299 15.80886379  2983
